[{"OBJECT_NAME":"STARLINK-1992","OBJECT_ID":"2021-012N","EPOCH":"2026-03-09T23:22:12.273024","MEAN_MOTION":15.30176508,"ECCENTRICITY":0.00012876,"INCLINATION":53.1605,"RA_OF_ASC_NODE":331.0935,"ARG_OF_PERICENTER":90.4017,"MEAN_ANOMALY":269.7132,"EPHEMERIS_TYPE":0,"CLASSIFICATION_TYPE":"U","NORAD_CAT_ID":47632,"ELEMENT_SET_NO":999,"REV_AT_EPOCH":28140,"BSTAR":1.1821486e-5,"MEAN_MOTION_DOT":-9.0e-8,"MEAN_MOTION_DDOT":0},{"OBJECT_NAME":"TRANSPORTER-1 OBJECT L","OBJECT_ID":"2021-006L","EPOCH":"2026-03-09T22:38:42.795168","MEAN_MOTION":15.33192932,"ECCENTRICITY":0.00114726,"INCLINATION":97.2368,"RA_OF_ASC_NODE":117.6447,"ARG_OF_PERICENTER":180.5165,"MEAN_ANOMALY":179.6068,"EPHEMERIS_TYPE":0,"CLASSIFICATION_TYPE":"U","NORAD_CAT_ID":47423,"ELEMENT_SET_NO":999,"REV_AT_EPOCH":28445,"BSTAR":0.00025636794,"MEAN_MOTION_DOT":8.162e-5,"MEAN_MOTION_DDOT":0}]
